STARLINK-34799          
1 65472U 25195Q   25270.25002315 -.00222334  00000+0 -56913-2 0  9993
2 65472  53.1604 301.0130 0001117  71.0085 109.1850 15.39729287  4274
STARLINK-34762          
1 65473U 25195R   25270.27299203  .00097995  00000+0  17457-2 0  9991
2 65473  53.1587 300.7989 0001345  92.5874 267.5289 15.49345606  4905
STARLINK-34998          
1 65474U 25195S   25270.27264835  .00092910  00000+0  16568-2 0  9999
2 65474  53.1586 300.7967 0001237 100.1830 259.9319 15.49342424  4903
STARLINK-34832          
1 65475U 25195T   25270.25002315 -.01633888  00000+0 -38259-1 0  9999
2 65475  53.1594 300.9336 0001688  81.4353 138.3533 15.44844418  4279
STARLINK-35098          
1 65476U 25195U   25270.27230545  .00053047  00000+0  95462-3 0  9991
2 65476  53.1585 300.7954 0001361  91.6668 268.4497 15.49330965  4900
STARLINK-35071          
1 65477U 25195V   25270.27196131  .00097240  00000+0  17324-2 0  9997
2 65477  53.1585 300.7917 0001281  95.8942 264.2213 15.49347608  4904
STARLINK-35093          
1 65478U 25195W   25270.27127555  .00094866  00000+0  16914-2 0  9997
2 65478  53.1586 300.7875 0001324  84.8733 275.2427 15.49336938  4906
STARLINK-35096          
1 65479U 25195X   25270.27093272  .00096886  00000+0  17257-2 0  9991
2 65479  53.1585 300.7851 0001242  84.7895 275.3256 15.49356331  4907
STARLINK-35040          
1 65480U 25195Y   25270.25002315 -.00071723  00000+0 -12925-2 0  9991
2 65480  53.1601 300.2628 0001204  82.8051 108.8393 15.49327758  4325
STARLINK-35042          
1 65481U 25195Z   25270.20710988  .00037567  00000+0  67987-3 0  9994
2 65481  53.1586 301.0983 0001229  90.6544 269.4606 15.49325352  4893
STARLINK-35038          
1 65482U 25195AA  25270.25002315 -.00066625  00000+0 -11992-2 0  9991
2 65482  53.1601 300.2584 0001347  82.5315 111.0263 15.49328137  4320
STARLINK-35037          
1 65483U 25195AB  25270.25002315 -.00044342  00000+0 -79346-3 0  9992
2 65483  53.1600 300.2550 0001266  85.5408 109.9330 15.49317767  4327
STARLINK-35089          
1 65484U 25195AC  25270.25002315 -.00077679  00000+0 -14013-2 0  9991
2 65484  53.1601 300.2473 0001248  81.6131 117.6953 15.49332930  4329
STARLINK-35143          
1 65485U 25195AD  25270.25002315 -.00074951  00000+0 -13514-2 0  9997
2 65485  53.1601 300.2501 0001283  77.3299 120.0618 15.49331860  4279
SHIYAN-29               
1 65486U 25196A   25269.88161068 -.00000161  00000+0  00000+0 0  9991
2 65486  28.5333  21.8504 0089983 131.2812 284.5003  0.98867077   240
CZ-3C R/B               
1 65487U 25196B   25269.59719919  .00020822  00000+0  29358-2 0  9999
2 65487  28.5075  12.3903 6969514 143.4190 294.9577  2.69620703   591
2025-197A               
1 65488U 25197A   25270.24460267  .00010676  00000+0  48777-3 0  9997
2 65488  97.4121  95.6999 0015413 201.1344 158.9257 15.20646802  3311
2025-197B               
1 65489U 25197B   25270.24177015  .00008703  00000+0  39521-3 0  9999
2 65489  97.4119  95.7032 0013926 204.6787 155.3784 15.20932313  3304
2025-197C               
1 65490U 25197C   25270.23763417  .00007829  00000+0  35291-3 0  9995
2 65490  97.4121  95.7093 0014653 209.1714 150.8705 15.21211596  3299
2025-197D               
1 65491U 25197D   25270.23658100  .00011179  00000+0  50049-3 0  9999
2 65491  97.4118  95.7100 0014346 210.1751 149.8660 15.21345643  3296
STARLINK-35226          
1 65492U 25198A   25270.25002315 -.01526608  00000+0 -14527-1 0  9994
2 65492  53.1591 320.3706 0000976  76.7305 264.6888 15.68988898  4054
STARLINK-35242          
1 65493U 25198B   25270.25002315 -.01525566  00000+0 -14516-1 0  9995
2 65493  53.1593 320.3743 0001011  76.5664 262.9341 15.68988645  4050
STARLINK-35223          
1 65494U 25198C   25270.25002315 -.01526905  00000+0 -14530-1 0  9990
2 65494  53.1592 320.3620 0000984  78.9411 266.3127 15.68988711  4052
STARLINK-34446          
1 65495U 25198D   25268.53611160  .00168781  00000+0  11318-2 0  9996
2 65495  53.1578 328.8407 0001230  88.6288 271.4873 15.74229674  3189
STARLINK-35212          
1 65496U 25198E   25270.25002315 -.01503676  00000+0 -14296-1 0  9991
2 65496  53.1591 320.3542 0000857  66.8321 282.2670 15.68968798  4054
STARLINK-34455          
1 65497U 25198F   25270.12493020  .00424244  00000+0  32377-2 0  9996
2 65497  53.1573 320.9736 0002284 201.5701 158.5222 15.70393843  3437
STARLINK-35203          
1 65498U 25198G   25270.25002315 -.01525998  00000+0 -14522-1 0  9996
2 65498  53.1592 320.3423 0000987  93.6497 261.1932 15.68985898  4261
STARLINK-35166          
1 65499U 25198H   25270.25002315 -.01536763  00000+0 -14629-1 0  9997
2 65499  53.1594 320.3343 0000935  66.6484 292.0130 15.68999377  4264
STARLINK-35207          
1 65500U 25198J   25270.25002315 -.01526745  00000+0 -14528-1 0  9997
2 65500  53.1593 320.3461 0000962  77.0492 275.8694 15.68990065  4261
STARLINK-35140          
1 65501U 25198K   25270.25002315 -.01528390  00000+0 -14546-1 0  9996
2 65501  53.1595 320.3384 0000883  82.2234 274.5311 15.68989962  4268
STARLINK-35114          
1 65502U 25198L   25270.25002315 -.01524444  00000+0 -14505-1 0  9998
2 65502  53.1592 320.3500 0000974  77.8577 273.1461 15.68987628  4221
STARLINK-35126          
1 65503U 25198M   25270.25002315 -.01527711  00000+0 -14538-1 0  9995
2 65503  53.1594 320.3256 0000992  78.8086 283.6952 15.68990125  4269
STARLINK-35182          
1 65504U 25198N   25270.25002315 -.01529368  00000+0 -14556-1 0  9996
2 65504  53.1593 320.3304 0000951  75.1193 285.4681 15.68990546  4162
STARLINK-35072          
1 65505U 25198P   25270.25002315 -.01527285  00000+0 -14535-1 0  9990
2 65505  53.1592 320.3217 0000907  80.1313 284.2913 15.68988876  4052
STARLINK-35184          
1 65506U 25198Q   25270.25002315 -.01526556  00000+0 -14527-1 0  9992
2 65506  53.1594 320.3175 0001009  76.3879 289.9514 15.68987947  4053
STARLINK-35163          
1 65507U 25198R   25270.25002315 -.01534100  00000+0 -14604-1 0  9993
2 65507  53.1594 320.3098 0000953  77.6729 292.4978 15.68993808  4330
STARLINK-35119          
1 65508U 25198S   25270.25002315 -.01529889  00000+0 -14560-1 0  9993
2 65508  53.1593 320.3138 0001050  73.1994 295.0533 15.68991483  4220
STARLINK-35168          
1 65509U 25198T   25270.25002315 -.01514400  00000+0 -14403-1 0  9993
2 65509  53.1595 320.3057 0001000  65.3402 306.7533 15.68978780  4264
STARLINK-35122          
1 65510U 25198U   25270.25002315 -.01522204  00000+0 -14481-1 0  9992
2 65510  53.1594 320.3016 0001079  71.7556 302.2499 15.68985769  4220
STARLINK-35124          
1 65511U 25198V   25270.25002315 -.01522703  00000+0 -14489-1 0  9995
2 65511  53.1592 320.2979 0000808  91.0062 284.9221 15.68983934  4267
STARLINK-35149          
1 65512U 25198W   25270.25002315 -.01528689  00000+0 -14551-1 0  9995
2 65512  53.1595 320.2933 0000861  82.6476 295.1914 15.68987377  4320
STARLINK-35019          
1 65513U 25198X   25270.25002315 -.01517868  00000+0 -14438-1 0  9997
2 65513  53.1593 320.2895 0001099  67.6201 312.1409 15.68980517  4226
STARLINK-35026          
1 65514U 25198Y   25270.25002315 -.01533760  00000+0 -14599-1 0  9995
2 65514  53.1593 320.2854 0001069  70.5494 311.1176 15.68995652  4277
STARLINK-35241          
1 65515U 25198Z   25270.25002315 -.01524799  00000+0 -14508-1 0  9998
2 65515  53.1593 320.2816 0000919  75.8016 307.7865 15.68989043  4225
STARLINK-35216          
1 65516U 25198AA  25270.25002315 -.01531997  00000+0 -14582-1 0  9999
2 65516  53.1592 320.2771 0001027  70.2848 315.2195 15.68992745  4265
STARLINK-35228          
1 65517U 25198AB  25270.25002315 -.01520689  00000+0 -14466-1 0  9997
2 65517  53.1593 320.2733 0001143  72.9026 314.5221 15.68984824  4329
STARLINK-35232          
1 65518U 25198AC  25270.25002315 -.01527168  00000+0 -14532-1 0  9991
2 65518  53.1593 320.2697 0001048  69.5897 319.7484 15.68990122  4226
STARLINK-35164          
1 65519U 25198AD  25268.65463781  .00188219  00000+0  12589-2 0  9999
2 65519  53.1576 328.1512 0001023  30.9540 329.1540 15.74225742  3202
STARLINK-35112          
1 65520U 25200A   25270.25002315 -.01482955  00000+0 -13070-1 0  9998
2 65520  97.5980 336.3318 0001373  91.5058 359.0319 15.71756198  4337
STARLINK-35187          
1 65521U 25200B   25270.25002315 -.01499297  00000+0 -13224-1 0  9997
2 65521  97.5981 336.3310 0001421  67.3621  25.0839 15.71772556  4335
STARLINK-35188          
1 65522U 25200C   25270.25002315 -.01500675  00000+0 -13237-1 0  9995
2 65522  97.5981 336.3321 0001428  69.2312  27.0552 15.71773964  4285
STARLINK-35078          
1 65523U 25200D   25270.25002315 -.01497603  00000+0 -13210-1 0  9993
2 65523  97.5968 336.3298 0001359  66.7327  27.6384 15.71768936  4388
STARLINK-35055          
1 65524U 25200E   25270.25002315 -.01501428  00000+0 -13244-1 0  9992
2 65524  97.5981 336.3328 0001471  68.5507  29.6574 15.71773801  4338
STARLINK-35057          
1 65525U 25200F   25270.25002315 -.01507892  00000+0 -13308-1 0  9995
2 65525  97.5975 336.3333 0001411  75.1607  24.9678 15.71777490  4383
STARLINK-34674          
1 65526U 25200G   25270.25002315 -.01500813  00000+0 -13238-1 0  9994
2 65526  97.5985 336.3350 0001447  71.2611  30.7872 15.71774131  4431
STARLINK-35067          
1 65527U 25200H   25270.25002315 -.01502044  00000+0 -13250-1 0  9997
2 65527  97.5979 336.3349 0001495  67.3041  36.6646 15.71774699  4331
STARLINK-35063          
1 65528U 25200J   25270.25002315 -.01500827  00000+0 -13238-1 0  9991
2 65528  97.5980 336.3357 0001473  69.3252  36.5647 15.71773785  4330
STARLINK-35077          
1 65529U 25200K   25270.25002315 -.01503596  00000+0 -13287-1 0  9992
2 65529  97.5981 336.3369 0001544  73.3026  34.4900 15.71736089  4333
STARLINK-35152          
1 65530U 25200L   25270.25002315 -.01508294  00000+0 -13307-1 0  9997
2 65530  97.5977 336.3373 0001657  64.6357  45.0877 15.71782432  4389
